FALCONSAT-6             
1 43815U 18099BK  26068.72544389  .00005029  00000+0  19477-3 0  9998
2 43815  97.3865 145.8165 0014370 297.0944 181.0714 15.26532865398556
STARLINK-32685          
1 62500U 25003P   26068.00309784  .00028833  00000+0  10524-2 0  9993
2 62500  43.0010 293.1001 0001980 250.2841 109.7797 15.27605936 66511
