[{"OBJECT_NAME":"FALCONSAT-6","OBJECT_ID":"2018-099BK","EPOCH":"2026-03-09T17:24:38.352096","MEAN_MOTION":15.26532865,"ECCENTRICITY":0.00143698,"INCLINATION":97.3865,"RA_OF_ASC_NODE":145.8165,"ARG_OF_PERICENTER":297.0944,"MEAN_ANOMALY":181.0714,"EPHEMERIS_TYPE":0,"CLASSIFICATION_TYPE":"U","NORAD_CAT_ID":43815,"ELEMENT_SET_NO":999,"REV_AT_EPOCH":39855,"BSTAR":0.00019476898,"MEAN_MOTION_DOT":5.029e-5,"MEAN_MOTION_DDOT":0},{"OBJECT_NAME":"STARLINK-32685","OBJECT_ID":"2025-003P","EPOCH":"2026-03-09T00:04:27.653376","MEAN_MOTION":15.27605936,"ECCENTRICITY":0.00019809,"INCLINATION":43.001,"RA_OF_ASC_NODE":293.1001,"ARG_OF_PERICENTER":250.2841,"MEAN_ANOMALY":109.7797,"EPHEMERIS_TYPE":0,"CLASSIFICATION_TYPE":"U","NORAD_CAT_ID":62500,"ELEMENT_SET_NO":999,"REV_AT_EPOCH":6651,"BSTAR":0.0010523619,"MEAN_MOTION_DOT":0.00028833,"MEAN_MOTION_DDOT":0}]
